CCSDS_OMM_VERS = 2.0
CREATION_DATE  = 
ORIGINATOR     = 

OBJECT_NAME    = ISS (ZARYA)
OBJECT_ID      = 1998-067A
CENTER_NAME    = EARTH
REF_FRAME      = TEME
TIME_SYSTEM    = UTC
MEAN_ELEMENT_THEORY = SGP/SGP4

EPOCH          = 2026-01-15T06:33:14.524992
MEAN_MOTION    = 15.49304898
ECCENTRICITY   = .0007764
INCLINATION    = 51.6333
RA_OF_ASC_NODE = 336.4632
ARG_OF_PERICENTER = 20.7339
MEAN_ANOMALY   = 339.3963

EPHEMERIS_TYPE = 0
CLASSIFICATION_TYPE = U
NORAD_CAT_ID   = 25544
ELEMENT_SET_NO = 999
REV_AT_EPOCH   = 54805
BSTAR          = .16988E-3
MEAN_MOTION_DOT = .9025E-4
MEAN_MOTION_DDOT = 0

CCSDS_OMM_VERS = 2.0
CREATION_DATE  = 
ORIGINATOR     = 

OBJECT_NAME    = CSS (TIANHE)
OBJECT_ID      = 2021-035A
CENTER_NAME    = EARTH
REF_FRAME      = TEME
TIME_SYSTEM    = UTC
MEAN_ELEMENT_THEORY = SGP/SGP4

EPOCH          = 2026-01-15T10:55:40.224288
MEAN_MOTION    = 15.60529746
ECCENTRICITY   = .0011357
INCLINATION    = 41.4650
RA_OF_ASC_NODE = 171.8013
ARG_OF_PERICENTER = 289.9960
MEAN_ANOMALY   = 69.9656

EPHEMERIS_TYPE = 0
CLASSIFICATION_TYPE = U
NORAD_CAT_ID   = 48274
ELEMENT_SET_NO = 999
REV_AT_EPOCH   = 26929
BSTAR          = .15982E-3
MEAN_MOTION_DOT = .13285E-3
MEAN_MOTION_DDOT = 0

CCSDS_OMM_VERS = 2.0
CREATION_DATE  = 
ORIGINATOR     = 

OBJECT_NAME    = ISS (NAUKA)
OBJECT_ID      = 2021-066A
CENTER_NAME    = EARTH
REF_FRAME      = TEME
TIME_SYSTEM    = UTC
MEAN_ELEMENT_THEORY = SGP/SGP4

EPOCH          = 2026-01-14T21:15:56.381472
MEAN_MOTION    = 15.49293899
ECCENTRICITY   = .00077611
INCLINATION    = 51.6333
RA_OF_ASC_NODE = 338.3791
ARG_OF_PERICENTER = 18.9639
MEAN_ANOMALY   = 341.1637

EPHEMERIS_TYPE = 0
CLASSIFICATION_TYPE = U
NORAD_CAT_ID   = 49044
ELEMENT_SET_NO = 999
REV_AT_EPOCH   = 23044
BSTAR          = .12902445E-3
MEAN_MOTION_DOT = .674E-4
MEAN_MOTION_DDOT = 0

CCSDS_OMM_VERS = 2.0
CREATION_DATE  = 
ORIGINATOR     = 

OBJECT_NAME    = FREGAT DEB
OBJECT_ID      = 2011-037PF
CENTER_NAME    = EARTH
REF_FRAME      = TEME
TIME_SYSTEM    = UTC
MEAN_ELEMENT_THEORY = SGP/SGP4

EPOCH          = 2026-01-15T05:48:15.363072
MEAN_MOTION    = 12.35792458
ECCENTRICITY   = .0901722
INCLINATION    = 51.5970
RA_OF_ASC_NODE = 100.2711
ARG_OF_PERICENTER = 297.7796
MEAN_ANOMALY   = 53.4474

EPHEMERIS_TYPE = 0
CLASSIFICATION_TYPE = U
NORAD_CAT_ID   = 49271
ELEMENT_SET_NO = 999
REV_AT_EPOCH   = 20607
BSTAR          = .65421E-1
MEAN_MOTION_DOT = .34049E-3
MEAN_MOTION_DDOT = 0

CCSDS_OMM_VERS = 2.0
CREATION_DATE  = 
ORIGINATOR     = 

OBJECT_NAME    = CSS (WENTIAN)
OBJECT_ID      = 2022-085A
CENTER_NAME    = EARTH
REF_FRAME      = TEME
TIME_SYSTEM    = UTC
MEAN_ELEMENT_THEORY = SGP/SGP4

EPOCH          = 2026-01-14T19:34:06.196800
MEAN_MOTION    = 15.60511354
ECCENTRICITY   = .00114061
INCLINATION    = 41.4652
RA_OF_ASC_NODE = 175.6948
ARG_OF_PERICENTER = 285.7845
MEAN_ANOMALY   = 74.1736

EPHEMERIS_TYPE = 0
CLASSIFICATION_TYPE = U
NORAD_CAT_ID   = 53239
ELEMENT_SET_NO = 999
REV_AT_EPOCH   = 17384
BSTAR          = .1413228E-3
MEAN_MOTION_DOT = .11697E-3
MEAN_MOTION_DDOT = 0

CCSDS_OMM_VERS = 2.0
CREATION_DATE  = 
ORIGINATOR     = 

OBJECT_NAME    = CSS (MENGTIAN)
OBJECT_ID      = 2022-143A
CENTER_NAME    = EARTH
REF_FRAME      = TEME
TIME_SYSTEM    = UTC
MEAN_ELEMENT_THEORY = SGP/SGP4

EPOCH          = 2026-01-14T19:34:06.196800
MEAN_MOTION    = 15.60511354
ECCENTRICITY   = .00114061
INCLINATION    = 41.4652
RA_OF_ASC_NODE = 175.6948
ARG_OF_PERICENTER = 285.7845
MEAN_ANOMALY   = 74.1736

EPHEMERIS_TYPE = 0
CLASSIFICATION_TYPE = U
NORAD_CAT_ID   = 54216
ELEMENT_SET_NO = 999
REV_AT_EPOCH   = 15864
BSTAR          = .1413228E-3
MEAN_MOTION_DOT = .11697E-3
MEAN_MOTION_DDOT = 0

CCSDS_OMM_VERS = 2.0
CREATION_DATE  = 
ORIGINATOR     = 

OBJECT_NAME    = SHENZHOU-20 (SZ-20)
OBJECT_ID      = 2025-082A
CENTER_NAME    = EARTH
REF_FRAME      = TEME
TIME_SYSTEM    = UTC
MEAN_ELEMENT_THEORY = SGP/SGP4

EPOCH          = 2026-01-14T19:34:06.196800
MEAN_MOTION    = 15.60511354
ECCENTRICITY   = .00114061
INCLINATION    = 41.4652
RA_OF_ASC_NODE = 175.6948
ARG_OF_PERICENTER = 285.7845
MEAN_ANOMALY   = 74.1736

EPHEMERIS_TYPE = 0
CLASSIFICATION_TYPE = U
NORAD_CAT_ID   = 63632
ELEMENT_SET_NO = 999
REV_AT_EPOCH   = 25530
BSTAR          = .1413228E-3
MEAN_MOTION_DOT = .11697E-3
MEAN_MOTION_DDOT = 0

CCSDS_OMM_VERS = 2.0
CREATION_DATE  = 
ORIGINATOR     = 

OBJECT_NAME    = PROGRESS-MS 31
OBJECT_ID      = 2025-146A
CENTER_NAME    = EARTH
REF_FRAME      = TEME
TIME_SYSTEM    = UTC
MEAN_ELEMENT_THEORY = SGP/SGP4

EPOCH          = 2026-01-14T21:15:56.381472
MEAN_MOTION    = 15.49293899
ECCENTRICITY   = .00077611
INCLINATION    = 51.6333
RA_OF_ASC_NODE = 338.3791
ARG_OF_PERICENTER = 18.9639
MEAN_ANOMALY   = 341.1637

EPHEMERIS_TYPE = 0
CLASSIFICATION_TYPE = U
NORAD_CAT_ID   = 64751
ELEMENT_SET_NO = 999
REV_AT_EPOCH   = 675
BSTAR          = .12902445E-3
MEAN_MOTION_DOT = .674E-4
MEAN_MOTION_DDOT = 0

CCSDS_OMM_VERS = 2.0
CREATION_DATE  = 
ORIGINATOR     = 

OBJECT_NAME    = TIANZHOU-9
OBJECT_ID      = 2025-149A
CENTER_NAME    = EARTH
REF_FRAME      = TEME
TIME_SYSTEM    = UTC
MEAN_ELEMENT_THEORY = SGP/SGP4

EPOCH          = 2026-01-14T19:34:06.196800
MEAN_MOTION    = 15.60511354
ECCENTRICITY   = .00114061
INCLINATION    = 41.4652
RA_OF_ASC_NODE = 175.6948
ARG_OF_PERICENTER = 285.7845
MEAN_ANOMALY   = 74.1736

EPHEMERIS_TYPE = 0
CLASSIFICATION_TYPE = U
NORAD_CAT_ID   = 64786
ELEMENT_SET_NO = 999
REV_AT_EPOCH   = 25530
BSTAR          = .1413228E-3
MEAN_MOTION_DOT = .11697E-3
MEAN_MOTION_DDOT = 0

CCSDS_OMM_VERS = 2.0
CREATION_DATE  = 
ORIGINATOR     = 

OBJECT_NAME    = CREW DRAGON 11
OBJECT_ID      = 2025-166A
CENTER_NAME    = EARTH
REF_FRAME      = TEME
TIME_SYSTEM    = UTC
MEAN_ELEMENT_THEORY = SGP/SGP4

EPOCH          = 2026-01-14T21:15:56.381472
MEAN_MOTION    = 15.49293899
ECCENTRICITY   = .0007761
INCLINATION    = 51.6333
RA_OF_ASC_NODE = 338.3791
ARG_OF_PERICENTER = 18.9639
MEAN_ANOMALY   = 341.1637

EPHEMERIS_TYPE = 0
CLASSIFICATION_TYPE = U
NORAD_CAT_ID   = 65077
ELEMENT_SET_NO = 999
REV_AT_EPOCH   = 54788
BSTAR          = .12902E-3
MEAN_MOTION_DOT = .674E-4
MEAN_MOTION_DDOT = 0

CCSDS_OMM_VERS = 2.0
CREATION_DATE  = 
ORIGINATOR     = 

OBJECT_NAME    = DRAGON CRS-33
OBJECT_ID      = 2025-186A
CENTER_NAME    = EARTH
REF_FRAME      = TEME
TIME_SYSTEM    = UTC
MEAN_ELEMENT_THEORY = SGP/SGP4

EPOCH          = 2026-01-14T21:15:56.381472
MEAN_MOTION    = 15.49293899
ECCENTRICITY   = .00077611
INCLINATION    = 51.6333
RA_OF_ASC_NODE = 338.3791
ARG_OF_PERICENTER = 18.9639
MEAN_ANOMALY   = 341.1637

EPHEMERIS_TYPE = 0
CLASSIFICATION_TYPE = U
NORAD_CAT_ID   = 65304
ELEMENT_SET_NO = 999
REV_AT_EPOCH   = 11
BSTAR          = .12902445E-3
MEAN_MOTION_DOT = .674E-4
MEAN_MOTION_DDOT = 0

CCSDS_OMM_VERS = 2.0
CREATION_DATE  = 
ORIGINATOR     = 

OBJECT_NAME    = PROGRESS-MS 32
OBJECT_ID      = 2025-204A
CENTER_NAME    = EARTH
REF_FRAME      = TEME
TIME_SYSTEM    = UTC
MEAN_ELEMENT_THEORY = SGP/SGP4

EPOCH          = 2026-01-14T21:15:56.381472
MEAN_MOTION    = 15.49293899
ECCENTRICITY   = .00077611
INCLINATION    = 51.6333
RA_OF_ASC_NODE = 338.3791
ARG_OF_PERICENTER = 18.9639
MEAN_ANOMALY   = 341.1637

EPHEMERIS_TYPE = 0
CLASSIFICATION_TYPE = U
NORAD_CAT_ID   = 65586
ELEMENT_SET_NO = 999
REV_AT_EPOCH   = 27
BSTAR          = .12902445E-3
MEAN_MOTION_DOT = .674E-4
MEAN_MOTION_DDOT = 0

